XRISM                   
1 57800U 23137A   24229.05562963  .00012399  00000+0  91470-3 0  9998
2 57800  31.0044 351.3091 0009896  81.2459 278.9298 15.02070067 51613
